CCSDS_OMM_VERS = 2.0
CREATION_DATE  = 
ORIGINATOR     = 

OBJECT_NAME    = ORBVIEW 2 (SEASTAR)
OBJECT_ID      = 1997-037A
CENTER_NAME    = EARTH
REF_FRAME      = TEME
TIME_SYSTEM    = UTC
MEAN_ELEMENT_THEORY = SGP/SGP4

EPOCH          = 2025-11-30T17:12:04.990752
MEAN_MOTION    = 14.35402022
ECCENTRICITY   = .0002265
INCLINATION    = 98.8452
RA_OF_ASC_NODE = 131.4889
ARG_OF_PERICENTER = 17.8367
MEAN_ANOMALY   = 342.2897

EPHEMERIS_TYPE = 0
CLASSIFICATION_TYPE = U
NORAD_CAT_ID   = 24883
ELEMENT_SET_NO = 999
REV_AT_EPOCH   = 49427
BSTAR          = .13158E-3
MEAN_MOTION_DOT = .331E-5
MEAN_MOTION_DDOT = 0

CCSDS_OMM_VERS = 2.0
CREATION_DATE  = 
ORIGINATOR     = 

OBJECT_NAME    = SL-16 R/B
OBJECT_ID      = 1998-043G
CENTER_NAME    = EARTH
REF_FRAME      = TEME
TIME_SYSTEM    = UTC
MEAN_ELEMENT_THEORY = SGP/SGP4

EPOCH          = 2025-11-30T19:12:18.983808
MEAN_MOTION    = 14.26020809
ECCENTRICITY   = .0008965
INCLINATION    = 98.8106
RA_OF_ASC_NODE = 282.5525
ARG_OF_PERICENTER = 305.3718
MEAN_ANOMALY   = 54.6624

EPHEMERIS_TYPE = 0
CLASSIFICATION_TYPE = U
NORAD_CAT_ID   = 25400
ELEMENT_SET_NO = 999
REV_AT_EPOCH   = 42489
BSTAR          = .55083E-4
MEAN_MOTION_DOT = .86E-6
MEAN_MOTION_DDOT = 0

CCSDS_OMM_VERS = 2.0
CREATION_DATE  = 
ORIGINATOR     = 

OBJECT_NAME    = SL-16 R/B
OBJECT_ID      = 1998-045B
CENTER_NAME    = EARTH
REF_FRAME      = TEME
TIME_SYSTEM    = UTC
MEAN_ELEMENT_THEORY = SGP/SGP4

EPOCH          = 2025-11-30T14:46:35.176224
MEAN_MOTION    = 14.16173857
ECCENTRICITY   = .0007649
INCLINATION    = 71.0127
RA_OF_ASC_NODE = 29.9236
ARG_OF_PERICENTER = 194.6341
MEAN_ANOMALY   = 165.4562

EPHEMERIS_TYPE = 0
CLASSIFICATION_TYPE = U
NORAD_CAT_ID   = 25407
ELEMENT_SET_NO = 999
REV_AT_EPOCH   = 41307
BSTAR          = .13854E-3
MEAN_MOTION_DOT = .227E-5
MEAN_MOTION_DDOT = 0

CCSDS_OMM_VERS = 2.0
CREATION_DATE  = 
ORIGINATOR     = 

OBJECT_NAME    = ISS (ZARYA)
OBJECT_ID      = 1998-067A
CENTER_NAME    = EARTH
REF_FRAME      = TEME
TIME_SYSTEM    = UTC
MEAN_ELEMENT_THEORY = SGP/SGP4

EPOCH          = 2025-11-30T13:03:31.260384
MEAN_MOTION    = 15.49206887
ECCENTRICITY   = .000369
INCLINATION    = 51.6312
RA_OF_ASC_NODE = 202.8529
ARG_OF_PERICENTER = 187.0517
MEAN_ANOMALY   = 173.0420

EPHEMERIS_TYPE = 0
CLASSIFICATION_TYPE = U
NORAD_CAT_ID   = 25544
ELEMENT_SET_NO = 999
REV_AT_EPOCH   = 54096
BSTAR          = .1518E-3
MEAN_MOTION_DOT = .7982E-4
MEAN_MOTION_DDOT = 0

CCSDS_OMM_VERS = 2.0
CREATION_DATE  = 
ORIGINATOR     = 

OBJECT_NAME    = CZ-4B R/B
OBJECT_ID      = 1999-025C
CENTER_NAME    = EARTH
REF_FRAME      = TEME
TIME_SYSTEM    = UTC
MEAN_ELEMENT_THEORY = SGP/SGP4

EPOCH          = 2025-11-30T18:22:18.710112
MEAN_MOTION    = 14.18238838
ECCENTRICITY   = .0036063
INCLINATION    = 98.6787
RA_OF_ASC_NODE = 16.3125
ARG_OF_PERICENTER = 269.3731
MEAN_ANOMALY   = 201.4355

EPHEMERIS_TYPE = 0
CLASSIFICATION_TYPE = U
NORAD_CAT_ID   = 25732
ELEMENT_SET_NO = 999
REV_AT_EPOCH   = 37414
BSTAR          = .65768E-4
MEAN_MOTION_DOT = .93E-6
MEAN_MOTION_DDOT = 0

CCSDS_OMM_VERS = 2.0
CREATION_DATE  = 
ORIGINATOR     = 

OBJECT_NAME    = OKEAN-O
OBJECT_ID      = 1999-039A
CENTER_NAME    = EARTH
REF_FRAME      = TEME
TIME_SYSTEM    = UTC
MEAN_ELEMENT_THEORY = SGP/SGP4

EPOCH          = 2025-11-30T18:09:13.667616
MEAN_MOTION    = 14.80127674
ECCENTRICITY   = .0000892
INCLINATION    = 97.9620
RA_OF_ASC_NODE = 30.5609
ARG_OF_PERICENTER = 74.5530
MEAN_ANOMALY   = 285.5780

EPHEMERIS_TYPE = 0
CLASSIFICATION_TYPE = U
NORAD_CAT_ID   = 25860
ELEMENT_SET_NO = 999
REV_AT_EPOCH   = 41975
BSTAR          = .11364E-3
MEAN_MOTION_DOT = .81E-5
MEAN_MOTION_DDOT = 0

CCSDS_OMM_VERS = 2.0
CREATION_DATE  = 
ORIGINATOR     = 

OBJECT_NAME    = SL-16 R/B
OBJECT_ID      = 1999-039B
CENTER_NAME    = EARTH
REF_FRAME      = TEME
TIME_SYSTEM    = UTC
MEAN_ELEMENT_THEORY = SGP/SGP4

EPOCH          = 2025-11-30T18:18:44.898624
MEAN_MOTION    = 14.81557935
ECCENTRICITY   = .0014066
INCLINATION    = 98.0144
RA_OF_ASC_NODE = 28.9126
ARG_OF_PERICENTER = 214.2639
MEAN_ANOMALY   = 145.7668

EPHEMERIS_TYPE = 0
CLASSIFICATION_TYPE = U
NORAD_CAT_ID   = 25861
ELEMENT_SET_NO = 999
REV_AT_EPOCH   = 42221
BSTAR          = .92427E-4
MEAN_MOTION_DOT = .672E-5
MEAN_MOTION_DDOT = 0

CCSDS_OMM_VERS = 2.0
CREATION_DATE  = 
ORIGINATOR     = 

OBJECT_NAME    = DELTA 2 R/B
OBJECT_ID      = 1999-041E
CENTER_NAME    = EARTH
REF_FRAME      = TEME
TIME_SYSTEM    = UTC
MEAN_ELEMENT_THEORY = SGP/SGP4

EPOCH          = 2025-11-30T17:54:36.648000
MEAN_MOTION    = 14.11350186
ECCENTRICITY   = .0504865
INCLINATION    = 51.7620
RA_OF_ASC_NODE = 336.3213
ARG_OF_PERICENTER = 56.4227
MEAN_ANOMALY   = 308.3857

EPHEMERIS_TYPE = 0
CLASSIFICATION_TYPE = U
NORAD_CAT_ID   = 25876
ELEMENT_SET_NO = 999
REV_AT_EPOCH   = 34905
BSTAR          = .22785E-3
MEAN_MOTION_DOT = .1168E-4
MEAN_MOTION_DDOT = 0

CCSDS_OMM_VERS = 2.0
CREATION_DATE  = 
ORIGINATOR     = 

OBJECT_NAME    = HELIOS 1B
OBJECT_ID      = 1999-064A
CENTER_NAME    = EARTH
REF_FRAME      = TEME
TIME_SYSTEM    = UTC
MEAN_ELEMENT_THEORY = SGP/SGP4

EPOCH          = 2025-11-30T18:15:03.820032
MEAN_MOTION    = 14.87201275
ECCENTRICITY   = .0002251
INCLINATION    = 98.1754
RA_OF_ASC_NODE = 229.0712
ARG_OF_PERICENTER = 58.5387
MEAN_ANOMALY   = 301.6048

EPHEMERIS_TYPE = 0
CLASSIFICATION_TYPE = U
NORAD_CAT_ID   = 25977
ELEMENT_SET_NO = 999
REV_AT_EPOCH   = 67055
BSTAR          = .21359E-3
MEAN_MOTION_DOT = .1864E-4
MEAN_MOTION_DDOT = 0

CCSDS_OMM_VERS = 2.0
CREATION_DATE  = 
ORIGINATOR     = 

OBJECT_NAME    = TERRA
OBJECT_ID      = 1999-068A
CENTER_NAME    = EARTH
REF_FRAME      = TEME
TIME_SYSTEM    = UTC
MEAN_ELEMENT_THEORY = SGP/SGP4

EPOCH          = 2025-11-30T19:44:08.244096
MEAN_MOTION    = 14.60929977
ECCENTRICITY   = .000334
INCLINATION    = 97.9766
RA_OF_ASC_NODE = 26.9429
ARG_OF_PERICENTER = 121.9770
MEAN_ANOMALY   = 328.4030

EPHEMERIS_TYPE = 0
CLASSIFICATION_TYPE = U
NORAD_CAT_ID   = 25994
ELEMENT_SET_NO = 999
REV_AT_EPOCH   = 38064
BSTAR          = .11455E-3
MEAN_MOTION_DOT = .516E-5
MEAN_MOTION_DDOT = 0

CCSDS_OMM_VERS = 2.0
CREATION_DATE  = 
ORIGINATOR     = 

OBJECT_NAME    = SL-16 R/B
OBJECT_ID      = 2000-006B
CENTER_NAME    = EARTH
REF_FRAME      = TEME
TIME_SYSTEM    = UTC
MEAN_ELEMENT_THEORY = SGP/SGP4

EPOCH          = 2025-11-30T16:13:31.819008
MEAN_MOTION    = 14.15805424
ECCENTRICITY   = .0017768
INCLINATION    = 71.0025
RA_OF_ASC_NODE = 306.0228
ARG_OF_PERICENTER = 325.5480
MEAN_ANOMALY   = 34.4490

EPHEMERIS_TYPE = 0
CLASSIFICATION_TYPE = U
NORAD_CAT_ID   = 26070
ELEMENT_SET_NO = 999
REV_AT_EPOCH   = 33454
BSTAR          = .19921E-3
MEAN_MOTION_DOT = .344E-5
MEAN_MOTION_DDOT = 0

CCSDS_OMM_VERS = 2.0
CREATION_DATE  = 
ORIGINATOR     = 

OBJECT_NAME    = TITAN 4B R/B
OBJECT_ID      = 2000-047B
CENTER_NAME    = EARTH
REF_FRAME      = TEME
TIME_SYSTEM    = UTC
MEAN_ELEMENT_THEORY = SGP/SGP4

EPOCH          = 2025-11-30T19:26:09.438144
MEAN_MOTION    = 15.08641434
ECCENTRICITY   = .0039822
INCLINATION    = 67.9898
RA_OF_ASC_NODE = 318.3576
ARG_OF_PERICENTER = 158.6205
MEAN_ANOMALY   = 201.6618

EPHEMERIS_TYPE = 0
CLASSIFICATION_TYPE = U
NORAD_CAT_ID   = 26474
ELEMENT_SET_NO = 999
REV_AT_EPOCH   = 37799
BSTAR          = .24637E-3
MEAN_MOTION_DOT = .3802E-4
MEAN_MOTION_DDOT = 0

