ORBVIEW 2 (SEASTAR)     
1 24883U 97037A   25334.71672443  .00000331  00000+0  13158-3 0  9999
2 24883  98.8452 131.4889 0002265  17.8367 342.2897 14.35402022494278
SL-16 R/B               
1 25400U 98043G   25334.80021972  .00000086  00000+0  55083-4 0  9999
2 25400  98.8106 282.5525 0008965 305.3718  54.6624 14.26020809424895
SL-16 R/B               
1 25407U 98045B   25334.61568491  .00000227  00000+0  13854-3 0  9995
2 25407  71.0127  29.9236 0007649 194.6341 165.4562 14.16173857413070
ISS (ZARYA)             
1 25544U 98067A   25334.54411181  .00007982  00000+0  15180-3 0  9995
2 25544  51.6312 202.8529 0003690 187.0517 173.0420 15.49206887540966
CZ-4B R/B               
1 25732U 99025C   25334.76549433  .00000093  00000+0  65768-4 0  9999
2 25732  98.6787  16.3125 0036063 269.3731 201.4355 14.18238838374148
OKEAN-O                 
1 25860U 99039A   25334.75640819  .00000810  00000+0  11364-3 0  9994
2 25860  97.9620  30.5609 0000892  74.5530 285.5780 14.80127674419753
SL-16 R/B               
1 25861U 99039B   25334.76301966  .00000672  00000+0  92427-4 0  9999
2 25861  98.0144  28.9126 0014066 214.2639 145.7668 14.81557935422218
DELTA 2 R/B             
1 25876U 99041E   25334.74625750  .00001168  00000+0  22785-3 0  9996
2 25876  51.7620 336.3213 0504865  56.4227 308.3857 14.11350186349051
HELIOS 1B               
1 25977U 99064A   25334.76046088  .00001864  00000+0  21359-3 0  9995
2 25977  98.1754 229.0712 0002251  58.5387 301.6048 14.87201275670557
TERRA                   
1 25994U 99068A   25334.82231764  .00000516  00000+0  11455-3 0  9991
2 25994  97.9766  26.9429 0003340 121.9770 328.4030 14.60929977380649
SL-16 R/B               
1 26070U 00006B   25334.67606272  .00000344  00000+0  19921-3 0  9999
2 26070  71.0025 306.0228 0017768 325.5480  34.4490 14.15805424334546
TITAN 4B R/B            
1 26474U 00047B   25334.80983146  .00003802  00000+0  24637-3 0  9997
2 26474  67.9898 318.3576 0039822 158.6205 201.6618 15.08641434377991
